{
  "links" : {
    "next" : "https://api.nasa.gov/neo/rest/v1/feed?start_date=2001-09-23&end_date=2001-09-23&detailed=true&api_key=t0TVs3DtDT2H8Oy2Zy8m2eVrNsAVKAexjcZXUckd",
    "prev" : "https://api.nasa.gov/neo/rest/v1/feed?start_date=2001-09-21&end_date=2001-09-21&detailed=true&api_key=t0TVs3DtDT2H8Oy2Zy8m2eVrNsAVKAexjcZXUckd",
    "self" : "https://api.nasa.gov/neo/rest/v1/feed?start_date=2001-09-22&end_date=2001-09-22&detailed=true&api_key=t0TVs3DtDT2H8Oy2Zy8m2eVrNsAVKAexjcZXUckd"
  },
  "element_count" : 3,
  "near_earth_objects" : {
    "2001-09-22" : [ {
      "links" : {
        "self" : "https://api.nasa.gov/neo/rest/v1/neo/3092343?api_key=t0TVs3DtDT2H8Oy2Zy8m2eVrNsAVKAexjcZXUckd"
      },
      "neo_reference_id" : "3092343",
      "name" : "(2001 SD286)",
      "nasa_jpl_url" : "http://ssd.jpl.nasa.gov/sbdb.cgi?sstr=3092343",
      "absolute_magnitude_h" : 25.3,
      "estimated_diameter" : {
        "kilometers" : {
          "estimated_diameter_min" : 0.0231502122,
          "estimated_diameter_max" : 0.0517654482
        },
        "meters" : {
          "estimated_diameter_min" : 23.150212221,
          "estimated_diameter_max" : 51.7654482198
        },
        "miles" : {
          "estimated_diameter_min" : 0.0143848705,
          "estimated_diameter_max" : 0.0321655483
        },
        "feet" : {
          "estimated_diameter_min" : 75.9521422633,
          "estimated_diameter_max" : 169.8341531374
        }
      },
      "is_potentially_hazardous_asteroid" : false,
      "close_approach_data" : [ {
        "close_approach_date" : "2001-09-22",
        "epoch_date_close_approach" : 1001142000000,
        "relative_velocity" : {
          "kilometers_per_second" : "12.7497181135",
          "kilometers_per_hour" : "45898.9852087469",
          "miles_per_hour" : "28519.8444481794"
        },
        "miss_distance" : {
          "astronomical" : "0.0204384853",
          "lunar" : "7.9505705833",
          "kilometers" : "3057553.75",
          "miles" : "1899875.875"
        },
        "orbiting_body" : "Earth"
      } ],
      "orbital_data" : {
        "orbit_id" : "9",
        "orbit_determination_date" : "2017-04-06 09:16:03",
        "orbit_uncertainty" : "9",
        "minimum_orbit_intersection" : ".011159",
        "jupiter_tisserand_invariant" : "3.534",
        "epoch_osculation" : "2452179.5",
        "eccentricity" : ".5660830084009373",
        "semi_major_axis" : "2.084481287020964",
        "inclination" : "6.237579887282455",
        "ascending_node_longitude" : "182.5831873232133",
        "orbital_period" : "1099.247351495831",
        "perihelion_distance" : ".904491849108679",
        "perihelion_argument" : "130.1881215894742",
        "aphelion_distance" : "3.264470724933248",
        "perihelion_time" : "2452140.313631841550",
        "mean_anomaly" : "12.83341053116515",
        "mean_motion" : ".3274968090758826",
        "equinox" : "J2000"
      }
    }, {
      "links" : {
        "self" : "https://api.nasa.gov/neo/rest/v1/neo/3559843?api_key=t0TVs3DtDT2H8Oy2Zy8m2eVrNsAVKAexjcZXUckd"
      },
      "neo_reference_id" : "3559843",
      "name" : "(2011 EP51)",
      "nasa_jpl_url" : "http://ssd.jpl.nasa.gov/sbdb.cgi?sstr=3559843",
      "absolute_magnitude_h" : 25.1,
      "estimated_diameter" : {
        "kilometers" : {
          "estimated_diameter_min" : 0.0253837029,
          "estimated_diameter_max" : 0.0567596853
        },
        "meters" : {
          "estimated_diameter_min" : 25.3837029364,
          "estimated_diameter_max" : 56.7596852866
        },
        "miles" : {
          "estimated_diameter_min" : 0.0157726969,
          "estimated_diameter_max" : 0.0352688224
        },
        "feet" : {
          "estimated_diameter_min" : 83.279867942,
          "estimated_diameter_max" : 186.2194458756
        }
      },
      "is_potentially_hazardous_asteroid" : false,
      "close_approach_data" : [ {
        "close_approach_date" : "2001-09-22",
        "epoch_date_close_approach" : 1001142000000,
        "relative_velocity" : {
          "kilometers_per_second" : "13.9690045936",
          "kilometers_per_hour" : "50288.4165370021",
          "miles_per_hour" : "31247.26637545"
        },
        "miss_distance" : {
          "astronomical" : "0.4104269407",
          "lunar" : "159.6560821533",
          "kilometers" : "61398996",
          "miles" : "38151568"
        },
        "orbiting_body" : "Earth"
      } ],
      "orbital_data" : {
        "orbit_id" : "27",
        "orbit_determination_date" : "2017-06-12 12:12:56",
        "orbit_uncertainty" : "0",
        "minimum_orbit_intersection" : ".0255378",
        "jupiter_tisserand_invariant" : "7.040",
        "epoch_osculation" : "2457703.5",
        "eccentricity" : ".3075680119413854",
        "semi_major_axis" : ".8282727481340162",
        "inclination" : "3.408069016843112",
        "ascending_node_longitude" : "160.1124108921875",
        "orbital_period" : "275.3331386362622",
        "perihelion_distance" : ".573522545645209",
        "perihelion_argument" : "169.6693163646154",
        "aphelion_distance" : "1.083022950622823",
        "perihelion_time" : "2457669.156806004292",
        "mean_anomaly" : "44.90396579101271",
        "mean_motion" : "1.307506977849076",
        "equinox" : "J2000"
      }
    }, {
      "links" : {
        "self" : "https://api.nasa.gov/neo/rest/v1/neo/3768018?api_key=t0TVs3DtDT2H8Oy2Zy8m2eVrNsAVKAexjcZXUckd"
      },
      "neo_reference_id" : "3768018",
      "name" : "(2017 BB94)",
      "nasa_jpl_url" : "http://ssd.jpl.nasa.gov/sbdb.cgi?sstr=3768018",
      "absolute_magnitude_h" : 20.3,
      "estimated_diameter" : {
        "kilometers" : {
          "estimated_diameter_min" : 0.2315021222,
          "estimated_diameter_max" : 0.5176544822
        },
        "meters" : {
          "estimated_diameter_min" : 231.5021222103,
          "estimated_diameter_max" : 517.6544821978
        },
        "miles" : {
          "estimated_diameter_min" : 0.1438487052,
          "estimated_diameter_max" : 0.3216554833
        },
        "feet" : {
          "estimated_diameter_min" : 759.5214226325,
          "estimated_diameter_max" : 1698.3415313737
        }
      },
      "is_potentially_hazardous_asteroid" : false,
      "close_approach_data" : [ {
        "close_approach_date" : "2001-09-22",
        "epoch_date_close_approach" : 1001142000000,
        "relative_velocity" : {
          "kilometers_per_second" : "29.0294147588",
          "kilometers_per_hour" : "104505.8931315025",
          "miles_per_hour" : "64935.8978738494"
        },
        "miss_distance" : {
          "astronomical" : "0.495579009",
          "lunar" : "192.7802276611",
          "kilometers" : "74137568",
          "miles" : "46066948"
        },
        "orbiting_body" : "Earth"
      } ],
      "orbital_data" : {
        "orbit_id" : "7",
        "orbit_determination_date" : "2017-04-06 08:20:24",
        "orbit_uncertainty" : "5",
        "minimum_orbit_intersection" : ".311256",
        "jupiter_tisserand_invariant" : "4.783",
        "epoch_osculation" : "2458000.5",
        "eccentricity" : ".4727539770236558",
        "semi_major_axis" : "1.277558214641215",
        "inclination" : "35.59543236761041",
        "ascending_node_longitude" : "130.6086873453882",
        "orbital_period" : "527.4356428931004",
        "perihelion_distance" : ".6735874877903392",
        "perihelion_argument" : "155.3414930954954",
        "aphelion_distance" : "1.88152894149209",
        "perihelion_time" : "2457948.606657159455",
        "mean_anomaly" : "35.4196832814017",
        "mean_motion" : ".6825477285253627",
        "equinox" : "J2000"
      }
    } ]
  }
}